start=new Date('2022-08-13T00:00:00.000Z').valueOf();
sats=[{"PERIAPSIS":"545.941","MEAN_MOTION_DDOT":"0.0000000000000","DECAY_DATE":null,"OBJECT_ID":"2020-055AF","APOAPSIS":"548.541","INCLINATION":"53.0545","BSTAR":"0.00000459550000","TIME_SYSTEM":"UTC","OBJECT_TYPE":"PAYLOAD","MEAN_ELEMENT_THEORY":"SGP4","ARG_OF_PERICENTER":"54.9706","OBJECT_NAME":"STARLINK-1561","MEAN_ANOMALY":"305.1459","FILE":"3535350","MEAN_MOTION_DOT":"-0.00000213","LAUNCH_DATE":"2020-08-07","TLE_LINE2":"2 46056  53.0545 216.0137 0001877  54.9706 305.1459 15.06391039112311","GP_ID":"210075314","ELEMENT_SET_NO":"999","TLE_LINE1":"1 46056U 20055AF  22224.46037331 -.00000213  00000-0  45955-5 0  9992","REF_FRAME":"TEME","PERIOD":"95.593","CENTER_NAME":"EARTH","SEMIMAJOR_AXIS":"6925.376","SITE":"AFETR","CLASSIFICATION_TYPE":"U","ECCENTRICITY":"0.00018770","COUNTRY_CODE":"US","RA_OF_ASC_NODE":"216.0137","REV_AT_EPOCH":"11231","EPHEMERIS_TYPE":"0","RCS_SIZE":"LARGE","EPOCH":"2022-08-12T11:02:56.253984","NORAD_CAT_ID":"46056","MEAN_MOTION":"15.06391039"},{"PERIOD":"95.592","SEMIMAJOR_AXIS":"6925.344","CENTER_NAME":"EARTH","MEAN_MOTION_DOT":"0.00001384","LAUNCH_DATE":"2020-08-07","TLE_LINE2":"2 46058  53.0543 216.8552 0001477  75.9924 284.1229 15.06401451112277","GP_ID":"210073564","REF_FRAME":"TEME","ELEMENT_SET_NO":"999","TLE_LINE1":"1 46058U 20055AH  22224.27332884  .00001384  00000-0  11180-3 0  9994","COUNTRY_CODE":"US","REV_AT_EPOCH":"11227","RA_OF_ASC_NODE":"216.8552","NORAD_CAT_ID":"46058","MEAN_MOTION":"15.06401451","EPOCH":"2022-08-12T06:33:35.611776","RCS_SIZE":"LARGE","EPHEMERIS_TYPE":"0","ECCENTRICITY":"0.00014770","CLASSIFICATION_TYPE":"U","SITE":"AFETR","APOAPSIS":"548.232","DECAY_DATE":null,"OBJECT_ID":"2020-055AH","INCLINATION":"53.0543","MEAN_MOTION_DDOT":"0.0000000000000","PERIAPSIS":"546.186","MEAN_ANOMALY":"284.1229","OBJECT_NAME":"STARLINK-1564","FILE":"3535350","BSTAR":"0.00011180000000","TIME_SYSTEM":"UTC","OBJECT_TYPE":"PAYLOAD","ARG_OF_PERICENTER":"75.9924","MEAN_ELEMENT_THEORY":"SGP4"},{"GP_ID":"210073814","TLE_LINE2":"2 46059  53.0537 216.5371 0001549  76.8941 283.2221 15.06391095112247","LAUNCH_DATE":"2020-08-07","MEAN_MOTION_DOT":"0.00001941","REF_FRAME":"TEME","TLE_LINE1":"1 46059U 20055AJ  22224.34706000  .00001941  00000-0  14922-3 0  9994","ELEMENT_SET_NO":"999","PERIOD":"95.593","SEMIMAJOR_AXIS":"6925.376","CENTER_NAME":"EARTH","ECCENTRICITY":"0.00015490","CLASSIFICATION_TYPE":"U","SITE":"AFETR","REV_AT_EPOCH":"11224","RA_OF_ASC_NODE":"216.5371","COUNTRY_CODE":"US","MEAN_MOTION":"15.06391095","NORAD_CAT_ID":"46059","RCS_SIZE":"LARGE","EPHEMERIS_TYPE":"0","EPOCH":"2022-08-12T08:19:45.984000","MEAN_MOTION_DDOT":"0.0000000000000","PERIAPSIS":"546.168","APOAPSIS":"548.314","OBJECT_ID":"2020-055AJ","DECAY_DATE":null,"INCLINATION":"53.0537","TIME_SYSTEM":"UTC","BSTAR":"0.00014922000000","ARG_OF_PERICENTER":"76.8941","MEAN_ELEMENT_THEORY":"SGP4","OBJECT_TYPE":"PAYLOAD","MEAN_ANOMALY":"283.2221","OBJECT_NAME":"STARLINK-1570","FILE":"3535350"},{"ECCENTRICITY":"0.00016070","SITE":"AFETR","CLASSIFICATION_TYPE":"U","NORAD_CAT_ID":"46060","MEAN_MOTION":"15.06395316","RCS_SIZE":"LARGE","EPHEMERIS_TYPE":"0","EPOCH":"2022-08-12T11:25:32.029824","COUNTRY_CODE":"US","RA_OF_ASC_NODE":"215.9562","REV_AT_EPOCH":"11227","REF_FRAME":"TEME","ELEMENT_SET_NO":"999","TLE_LINE1":"1 46060U 20055AK  22224.47606516  .00000477  00000-0  50902-4 0  9993","LAUNCH_DATE":"2020-08-07","MEAN_MOTION_DOT":"0.00000477","TLE_LINE2":"2 46060  53.0547 215.9562 0001607  67.2891 292.8268 15.06395316112278","GP_ID":"210074565","SEMIMAJOR_AXIS":"6925.363","CENTER_NAME":"EARTH","PERIOD":"95.592","OBJECT_TYPE":"PAYLOAD","ARG_OF_PERICENTER":"67.2891","MEAN_ELEMENT_THEORY":"SGP4","BSTAR":"0.00005090200000","TIME_SYSTEM":"UTC","FILE":"3535350","MEAN_ANOMALY":"292.8268","OBJECT_NAME":"STARLINK-1572","MEAN_MOTION_DDOT":"0.0000000000000","PERIAPSIS":"546.115","INCLINATION":"53.0547","APOAPSIS":"548.341","DECAY_DATE":null,"OBJECT_ID":"2020-055AK"},{"APOAPSIS":"548.429","DECAY_DATE":null,"OBJECT_ID":"2020-055AL","INCLINATION":"53.0541","MEAN_MOTION_DDOT":"0.0000000000000","PERIAPSIS":"546.075","MEAN_ANOMALY":"298.8590","OBJECT_NAME":"STARLINK-1573","FILE":"3535350","BSTAR":"0.00013601000000","TIME_SYSTEM":"UTC","OBJECT_TYPE":"PAYLOAD","MEAN_ELEMENT_THEORY":"SGP4","ARG_OF_PERICENTER":"61.2570","PERIOD":"95.593","SEMIMAJOR_AXIS":"6925.387","CENTER_NAME":"EARTH","MEAN_MOTION_DOT":"0.00001744","LAUNCH_DATE":"2020-08-07","GP_ID":"210074815","TLE_LINE2":"2 46061  53.0541 215.9920 0001699  61.2570 298.8590 15.06387493112305","REF_FRAME":"TEME","ELEMENT_SET_NO":"999","TLE_LINE1":"1 46061U 20055AL  22224.46869622  .00001744  00000-0  13601-3 0  9994","COUNTRY_CODE":"US","RA_OF_ASC_NODE":"215.9920","REV_AT_EPOCH":"11230","NORAD_CAT_ID":"46061","MEAN_MOTION":"15.06387493","RCS_SIZE":"LARGE","EPHEMERIS_TYPE":"0","EPOCH":"2022-08-12T11:14:55.353408","ECCENTRICITY":"0.00016990","SITE":"AFETR","CLASSIFICATION_TYPE":"U"},{"REF_FRAME":"TEME","TLE_LINE1":"1 46062U 20055AM  22224.70091541  .00001848  00000-0  14297-3 0  9996","ELEMENT_SET_NO":"999","TLE_LINE2":"2 46062  53.0531 214.9345 0001814  59.0165 301.1002 15.06389974112301","GP_ID":"210103272","MEAN_MOTION_DOT":"0.00001848","LAUNCH_DATE":"2020-08-07","SEMIMAJOR_AXIS":"6925.379","CENTER_NAME":"EARTH","PERIOD":"95.593","ECCENTRICITY":"0.00018140","CLASSIFICATION_TYPE":"U","SITE":"AFETR","MEAN_MOTION":"15.06389974","NORAD_CAT_ID":"46062","EPOCH":"2022-08-12T16:49:19.091424","RCS_SIZE":"LARGE","EPHEMERIS_TYPE":"0","REV_AT_EPOCH":"11230","RA_OF_ASC_NODE":"214.9345","COUNTRY_CODE":"US","MEAN_MOTION_DDOT":"0.0000000000000","PERIAPSIS":"545.988","INCLINATION":"53.0531","APOAPSIS":"548.501","OBJECT_ID":"2020-055AM","DECAY_DATE":null,"MEAN_ELEMENT_THEORY":"SGP4","ARG_OF_PERICENTER":"59.0165","OBJECT_TYPE":"PAYLOAD","TIME_SYSTEM":"UTC","BSTAR":"0.00014297000000","FILE":"3535519","MEAN_ANOMALY":"301.1002","OBJECT_NAME":"STARLINK-1574"},{"OBJECT_ID":"2020-055AN","DECAY_DATE":null,"APOAPSIS":"548.180","INCLINATION":"53.0525","PERIAPSIS":"546.279","MEAN_MOTION_DDOT":"0.0000000000000","OBJECT_NAME":"STARLINK-1577","MEAN_ANOMALY":"279.2331","FILE":"3535196","TIME_SYSTEM":"UTC","BSTAR":"0.00002817400000","ARG_OF_PERICENTER":"80.8814","MEAN_ELEMENT_THEORY":"SGP4","OBJECT_TYPE":"PAYLOAD","PERIOD":"95.592","CENTER_NAME":"EARTH","SEMIMAJOR_AXIS":"6925.365","GP_ID":"210050992","TLE_LINE2":"2 46063  53.0525 215.8605 0001372  80.8814 279.2331 15.06394784111760","LAUNCH_DATE":"2020-08-07","MEAN_MOTION_DOT":"0.00000138","TLE_LINE1":"1 46063U 20055AN  22224.49817993  .00000138  00000-0  28174-4 0  9991","ELEMENT_SET_NO":"999","REF_FRAME":"TEME","REV_AT_EPOCH":"11176","RA_OF_ASC_NODE":"215.8605","COUNTRY_CODE":"US","RCS_SIZE":"LARGE","EPOCH":"2022-08-12T11:57:22.745952","EPHEMERIS_TYPE":"0","MEAN_MOTION":"15.06394784","NORAD_CAT_ID":"46063","SITE":"AFETR","CLASSIFICATION_TYPE":"U","ECCENTRICITY":"0.00013720"},{"APOAPSIS":"548.433","OBJECT_ID":"2020-055AP","DECAY_DATE":null,"INCLINATION":"53.0526","MEAN_MOTION_DDOT":"0.0000000000000","PERIAPSIS":"545.968","MEAN_ANOMALY":"291.3720","OBJECT_NAME":"STARLINK-1583","FILE":"3535519","TIME_SYSTEM":"UTC","BSTAR":"0.00024308000000","ARG_OF_PERICENTER":"68.7458","MEAN_ELEMENT_THEORY":"SGP4","OBJECT_TYPE":"PAYLOAD","PERIOD":"95.592","SEMIMAJOR_AXIS":"6925.335","CENTER_NAME":"EARTH","GP_ID":"210103772","TLE_LINE2":"2 46064  53.0526 214.5129 0001780  68.7458 291.3720 15.06404305112355","MEAN_MOTION_DOT":"0.00003341","LAUNCH_DATE":"2020-08-07","REF_FRAME":"TEME","TLE_LINE1":"1 46064U 20055AP  22224.79673575  .00003341  00000-0  24308-3 0  9994","ELEMENT_SET_NO":"999","RA_OF_ASC_NODE":"214.5129","REV_AT_EPOCH":"11235","COUNTRY_CODE":"US","MEAN_MOTION":"15.06404305","NORAD_CAT_ID":"46064","RCS_SIZE":"LARGE","EPOCH":"2022-08-12T19:07:17.968800","EPHEMERIS_TYPE":"0","ECCENTRICITY":"0.00017800","SITE":"AFETR","CLASSIFICATION_TYPE":"U"},{"RA_OF_ASC_NODE":"196.6284","REV_AT_EPOCH":"11254","COUNTRY_CODE":"US","EPHEMERIS_TYPE":"0","RCS_SIZE":"LARGE","EPOCH":"2022-08-12T07:49:11.670528","MEAN_MOTION":"15.06401181","NORAD_CAT_ID":"46065","CLASSIFICATION_TYPE":"U","SITE":"AFETR","ECCENTRICITY":"0.00015900","PERIOD":"95.592","CENTER_NAME":"EARTH","SEMIMAJOR_AXIS":"6925.345","TLE_LINE2":"2 46065  53.0548 196.6284 0001590  65.6346 294.4808 15.06401181112544","GP_ID":"210075315","MEAN_MOTION_DOT":"0.00002877","LAUNCH_DATE":"2020-08-07","TLE_LINE1":"1 46065U 20055AQ  22224.32582952  .00002877  00000-0  21195-3 0  9996","ELEMENT_SET_NO":"999","REF_FRAME":"TEME","OBJECT_NAME":"STARLINK-1515","MEAN_ANOMALY":"294.4808","FILE":"3535350","TIME_SYSTEM":"UTC","BSTAR":"0.00021195000000","MEAN_ELEMENT_THEORY":"SGP4","ARG_OF_PERICENTER":"65.6346","OBJECT_TYPE":"PAYLOAD","OBJECT_ID":"2020-055AQ","DECAY_DATE":null,"APOAPSIS":"548.311","INCLINATION":"53.0548","PERIAPSIS":"546.109","MEAN_MOTION_DDOT":"0.0000000000000"},{"PERIAPSIS":"545.927","MEAN_MOTION_DDOT":"0.0000000000000","OBJECT_ID":"2020-055AR","DECAY_DATE":null,"APOAPSIS":"548.506","INCLINATION":"53.0531","TIME_SYSTEM":"UTC","BSTAR":"0.00031312000000","ARG_OF_PERICENTER":"67.8545","MEAN_ELEMENT_THEORY":"SGP4","OBJECT_TYPE":"PAYLOAD","OBJECT_NAME":"STARLINK-1525","MEAN_ANOMALY":"292.2641","FILE":"3535350","GP_ID":"210073565","TLE_LINE2":"2 46066  53.0531 196.6165 0001862  67.8545 292.2641 15.06399168112555","LAUNCH_DATE":"2020-08-07","MEAN_MOTION_DOT":"0.00004385","TLE_LINE1":"1 46066U 20055AR  22224.33046393  .00004385  00000-0  31312-3 0  9990","ELEMENT_SET_NO":"999","REF_FRAME":"TEME","PERIOD":"95.592","CENTER_NAME":"EARTH","SEMIMAJOR_AXIS":"6925.351","CLASSIFICATION_TYPE":"U","SITE":"AFETR","ECCENTRICITY":"0.00018620","RA_OF_ASC_NODE":"196.6165","REV_AT_EPOCH":"11255","COUNTRY_CODE":"US","RCS_SIZE":"LARGE","EPHEMERIS_TYPE":"0","EPOCH":"2022-08-12T07:55:52.083552","MEAN_MOTION":"15.06399168","NORAD_CAT_ID":"46066"}];
